{"epoch":1784902576,"count":18312,"objects":[{"id":"31797","name":"SAR LUPE 2","type":"PAYLOAD","l1":"1 31797U 07030A   26205.27502422  .00049185  00000-0  72664-3 0  9991","l2":"2 31797  98.1053 314.4649 0005839 219.5680 140.5147 15.55177388 62697"},{"id":"39088","name":"SAPPHIRE","type":"PAYLOAD","l1":"1 39088U 13009C   26205.25010566  .00000115  00000-0  55150-4 0  9998","l2":"2 39088  98.4281  23.8295 0012071 134.5086 225.7088 14.35249594701892"},{"id":"65565","name":"PRAETORIAN SDA_602","type":"PAYLOAD","l1":"1 65565U 25203A   26205.32809926  .00000093  00000-0  73288-4 0  9997","l2":"2 65565  81.3053 336.3834 0007162  96.8004 263.3967 13.83889176 43830"},{"id":"65566","name":"PRAETORIAN SDA_603","type":"PAYLOAD","l1":"1 65566U 25203B   26204.34376022  .00000120  00000-0  97347-4 0  9998","l2":"2 65566  81.3059 337.2154 0010790  94.8526 265.3862 13.83962424 43700"},{"id":"65567","name":"PRAETORIAN SDA_604","type":"PAYLOAD","l1":"1 65567U 25203C   26204.38669123  .00000107  00000-0  87356-4 0  9994","l2":"2 65567  81.3075 337.6446 0006676 103.1117 257.0784 13.83051396 43680"},{"id":"65568","name":"PRAETORIAN SDA_605","type":"PAYLOAD","l1":"1 65568U 25203D   26204.77950420  .00000103  00000-0  82721-4 0  9998","l2":"2 65568  81.3040 336.9172 0009352  92.9259 267.2967 13.83201456 43755"},{"id":"65569","name":"PRAETORIAN SDA_606","type":"PAYLOAD","l1":"1 65569U 25203E   26204.76468077  .00000072  00000-0  55015-4 0  9991","l2":"2 65569  81.3077 337.1724 0007251  96.5880 263.6101 13.83200789 43745"},{"id":"65570","name":"PRAETORIAN SDA_607","type":"PAYLOAD","l1":"1 65570U 25203F   26204.31774528  .00000134  00000-0  11013-3 0  9993","l2":"2 65570  81.3062 337.1972 0010055  95.1072 265.1232 13.83759288 43701"},{"id":"65571","name":"PRAETORIAN SDA_608","type":"PAYLOAD","l1":"1 65571U 25203G   26205.31215377  .00000111  00000-0  89321-4 0  9990","l2":"2 65571  81.3029 336.4368 0007162  99.3745 260.8221 13.83820891 43826"},{"id":"65572","name":"PRAETORIAN SDA_609","type":"PAYLOAD","l1":"1 65572U 25203H   26205.30655321  .00000136  00000-0  11140-3 0  9997","l2":"2 65572  81.3072 336.4185 0008009  93.7619 266.4454 13.84212855 43838"},{"id":"65573","name":"PRAETORIAN SDA_610","type":"PAYLOAD","l1":"1 65573U 25203J   26205.29596893  .00000099  00000-0  79317-4 0  9993","l2":"2 65573  81.3032 336.4192 0007872  98.7447 261.4601 13.83529610 43821"},{"id":"65574","name":"PRAETORIAN SDA_611","type":"PAYLOAD","l1":"1 65574U 25203K   26205.30631175  .00000223  00000-0  19213-3 0  9996","l2":"2 65574  81.3028 336.5950 0006824 103.1528 257.0390 13.83311433 43814"},{"id":"65575","name":"PRAETORIAN SDA_612","type":"PAYLOAD","l1":"1 65575U 25203L   26205.32184175  .00000191  00000-0  15847-3 0  9995","l2":"2 65575  81.3054 336.0763 0010421  92.7655 267.4695 13.85042522 43852"},{"id":"65576","name":"PRAETORIAN SDA_613","type":"PAYLOAD","l1":"1 65576U 25203M   26204.82112907  .00000090  00000-0  71845-4 0  9993","l2":"2 65576  81.3022 337.0693 0006836  95.5814 264.6121 13.82768817 43744"},{"id":"65577","name":"PRAETORIAN SDA_614","type":"PAYLOAD","l1":"1 65577U 25203N   26205.31803775  .00000072  00000-0  52915-4 0  9996","l2":"2 65577  81.3037 336.1665 0008280  91.9350 268.2755 13.84779458 43850"},{"id":"65578","name":"PRAETORIAN SDA_615","type":"PAYLOAD","l1":"1 65578U 25203P   26205.30405681  .00000127  00000-0  10258-3 0  9994","l2":"2 65578  81.3051 336.1665 0010193  91.9851 268.2473 13.84439755 43848"},{"id":"65579","name":"PRAETORIAN SDA_616","type":"PAYLOAD","l1":"1 65579U 25203Q   26204.80030558  .00000127  00000-0  10457-3 0  9997","l2":"2 65579  81.3084 337.2325 0006705 102.7235 257.4671 13.83271050 43741"},{"id":"65580","name":"PRAETORIAN SDA_617","type":"PAYLOAD","l1":"1 65580U 25203R   26204.82503185  .00000056  00000-0  39834-4 0  9994","l2":"2 65580  81.3060 337.0377 0008544  93.3727 266.8406 13.83152886 43752"},{"id":"65581","name":"PRAETORIAN SDA_618","type":"PAYLOAD","l1":"1 65581U 25203S   26204.33313816  .00000134  00000-0  10974-3 0  9991","l2":"2 65581  81.3043 337.0008 0010952  97.1040 263.1363 13.84226547 43716"},{"id":"65582","name":"PRAETORIAN SDA_619","type":"PAYLOAD","l1":"1 65582U 25203T   26205.32296216  .00000185  00000-0  15657-3 0  9995","l2":"2 65582  81.3068 336.4209 0009365  92.7007 267.5221 13.83807269 44469"},{"id":"65583","name":"PRAETORIAN SDA_620","type":"PAYLOAD","l1":"1 65583U 25203U   26204.34931514  .00000176  00000-0  14985-3 0  9997","l2":"2 65583  81.3051 337.3598 0008660  92.5802 267.6346 13.83208757 43691"},{"id":"65584","name":"PRAETORIAN SDA_621","type":"PAYLOAD","l1":"1 65584U 25203V   26204.81868410  .00000085  00000-0  66236-4 0  9990","l2":"2 65584  81.3043 336.8172 0008508  88.7122 271.5009 13.83804942 43764"},{"id":"65585","name":"PRAETORIAN SDA_601","type":"PAYLOAD","l1":"1 65585U 25203X   26205.31244489  .00000291  00000-0  25477-3 0  9991","l2":"2 65585  81.3058 336.6990 0006753 104.1192 256.0715 13.83171317 43818"},{"id":"69646","name":"VICTUS HAZE PUMA","type":"PAYLOAD","l1":"1 69646U 26142A   26204.27102410  .00004214  00000-0  19059-3 0  9995","l2":"2 69646  97.4452 101.4820 0026594 237.1743 122.6931 15.21162456  5151"}]}