OBJECT_NAME,OBJECT_ID,EPOCH,MEAN_MOTION,ECCENTRICITY,INCLINATION,RA_OF_ASC_NODE,ARG_OF_PERICENTER,MEAN_ANOMALY,EPHEMERIS_TYPE,CLASSIFICATION_TYPE,NORAD_CAT_ID,ELEMENT_SET_NO,REV_AT_EPOCH,BSTAR,MEAN_MOTION_DOT,MEAN_MOTION_DDOT
SAR-LUPE 2,2007-030A,2026-07-24T06:36:02.092608,15.55177388,.00058394,98.1053,314.4649,219.5680,140.5147,0,U,31797,999,6269,.72664407E-3,.49185E-3,0
SAPPHIRE,2013-009C,2026-07-24T06:00:09.129024,14.35249594,.00120705,98.4281,23.8295,134.5086,225.7088,0,U,39088,999,70189,.55149903E-4,.115E-5,0
PRAETORIAN SDA_602,2025-203A,2026-07-24T07:52:27.776064,13.83889176,.00071619,81.3053,336.3834,96.8004,263.3967,0,U,65565,999,4383,.73287948E-4,.93E-6,0
PRAETORIAN SDA_603,2025-203B,2026-07-23T08:15:00.883008,13.83962424,.001079,81.3059,337.2154,94.8526,265.3862,0,U,65566,999,4370,.97347E-4,.12E-5,0
PRAETORIAN SDA_604,2025-203C,2026-07-23T09:16:50.122272,13.83051396,.0006676,81.3075,337.6446,103.1117,257.0784,0,U,65567,999,4368,.87356E-4,.107E-5,0
PRAETORIAN SDA_605,2025-203D,2026-07-23T18:42:29.162880,13.83201456,.00093521,81.3040,336.9172,92.9259,267.2967,0,U,65568,999,4375,.82720846E-4,.103E-5,0
PRAETORIAN SDA_606,2025-203E,2026-07-23T18:21:08.418528,13.83200789,.00072509,81.3077,337.1724,96.5880,263.6101,0,U,65569,999,4374,.55015178E-4,.72E-6,0
PRAETORIAN SDA_607,2025-203F,2026-07-23T07:37:33.192192,13.83759288,.0010055,81.3062,337.1972,95.1072,265.1232,0,U,65570,999,4370,.11013E-3,.134E-5,0
PRAETORIAN SDA_608,2025-203G,2026-07-24T07:29:30.085728,13.83820891,.00071616,81.3029,336.4368,99.3745,260.8221,0,U,65571,999,4382,.89320846E-4,.111E-5,0
PRAETORIAN SDA_609,2025-203H,2026-07-24T07:21:26.197344,13.84212855,.00080094,81.3072,336.4185,93.7619,266.4454,0,U,65572,999,4383,.11139574E-3,.136E-5,0
PRAETORIAN SDA_610,2025-203J,2026-07-24T07:06:11.715552,13.83529610,.00078721,81.3032,336.4192,98.7447,261.4601,0,U,65573,999,4382,.79316912E-4,.99E-6,0
PRAETORIAN SDA_611,2025-203K,2026-07-24T07:21:05.335200,13.83311433,.00068237,81.3028,336.5950,103.1528,257.0390,0,U,65574,999,4381,.19213392E-3,.223E-5,0
PRAETORIAN SDA_612,2025-203L,2026-07-24T07:43:27.127200,13.85042522,.00104205,81.3054,336.0763,92.7655,267.4695,0,U,65575,999,4385,.15846823E-3,.191E-5,0
PRAETORIAN SDA_613,2025-203M,2026-07-23T19:42:25.551648,13.82768817,.00068356,81.3022,337.0693,95.5814,264.6121,0,U,65576,999,4374,.71844697E-4,.9E-6,0
PRAETORIAN SDA_614,2025-203N,2026-07-24T07:37:58.461600,13.84779458,.00082805,81.3037,336.1665,91.9350,268.2755,0,U,65577,999,4385,.5291533E-4,.72E-6,0
PRAETORIAN SDA_615,2025-203P,2026-07-24T07:17:50.508384,13.84439755,.00101927,81.3051,336.1665,91.9851,268.2473,0,U,65578,999,4384,.10258045E-3,.127E-5,0
PRAETORIAN SDA_616,2025-203Q,2026-07-23T19:12:26.402112,13.83271050,.00067051,81.3084,337.2325,102.7235,257.4671,0,U,65579,999,4374,.10457235E-3,.127E-5,0
PRAETORIAN SDA_617,2025-203R,2026-07-23T19:48:02.751840,13.83152886,.00085444,81.3060,337.0377,93.3727,266.8406,0,U,65580,999,4375,.39833742E-4,.56E-6,0
PRAETORIAN SDA_618,2025-203S,2026-07-23T07:59:43.137024,13.84226547,.0010952,81.3043,337.0008,97.1040,263.1363,0,U,65581,999,4371,.10974E-3,.134E-5,0
PRAETORIAN SDA_619,2025-203T,2026-07-24T07:45:03.930624,13.83807269,.00093646,81.3068,336.4209,92.7007,267.5221,0,U,65582,999,4446,.15656962E-3,.185E-5,0
PRAETORIAN SDA_620,2025-203U,2026-07-23T08:23:00.828096,13.83208757,.000866,81.3051,337.3598,92.5802,267.6346,0,U,65583,999,4369,.14985E-3,.176E-5,0
PRAETORIAN SDA_621,2025-203V,2026-07-23T19:38:54.306240,13.83804942,.00085077,81.3043,336.8172,88.7122,271.5009,0,U,65584,999,4376,.66236327E-4,.85E-6,0
PRAETORIAN SDA_601,2025-203W,2026-07-24T07:29:55.238496,13.83171317,.00067529,81.3058,336.6990,104.1192,256.0715,0,U,65585,999,4381,.25477304E-3,.291E-5,0
VICTUS HAZE PUMA,2026-142A,2026-07-23T06:30:16.482240,15.21162456,.0026594,97.4452,101.4820,237.1743,122.6931,0,U,69646,999,515,.19059E-3,.4214E-4,0
